satname,norad_id,inclination_deg,eccentricity,mean_motion_rev_per_day,perigee_km,apogee_km,l1,l2
STARLINK-1297,45395,53.0536,0.0001948,15.46480454,425.70587486387467,428.35716851992674,1 45395U 20019AM  26029.42738975  .00102967  00000+0  20245-2 0  9991,2 45395  53.0536 319.1624 0001948 110.2480 249.8736 15.46480454323327
STARLINK-1307,45397,53.0573,0.0001525,15.45506199,428.85288825880616,430.92933683313186,1 45397U 20019AP  26029.50036398  .00031943  00000+0  66143-3 0  9995,2 45397  53.0573 318.2825 0001525 106.1635 253.9539 15.45506199323983
STARLINK-1255,45399,53.046,0.0007028,15.44406726,428.33489566731805,437.90880110460967,1 45399U 20019AR  26029.58335647  .00138546  00000+0  29055-2 0  9991,2 45399  53.0460 289.8910 0007028 105.3441 343.0885 15.44406726  5939
STARLINK-1260,45404,53.1574,0.0001374,15.29310403,476.93051749464666,478.8145489143717,1 45404U 20019AW  26029.58335647  .00062584  00000+0  21659-2 0  9998,2 45404  53.1574 310.8415 0001374 102.8083 330.4418 15.29310403  5830
STARLINK-1263,45405,53.1552,0.0001297,15.29309838,476.98499717356117,478.76344648450413,1 45405U 20019AX  26029.58335647  .00059103  00000+0  20471-2 0  9993,2 45405  53.1552 310.8592 0001297  92.4462  51.8578 15.29309838  5787
STARLINK-1265,45406,53.1566,0.000132,15.29325321,476.9229605426535,478.7329352889028,1 45406U 20019AY  26029.58335647  .00068154  00000+0  23548-2 0  9998,2 45406  53.1566 310.9296 0001320 102.9891 322.4728 15.29325321  5830
STARLINK-1278,45408,53.0503,0.0006564,15.47580003,419.3429811569822,428.2725742611583,1 45408U 20019BA  26028.97912171  .00120213  00000+0  22677-2 0  9992,2 45408  53.0503 321.4662 0006564  51.7293 308.4303 15.47580003323799
STARLINK-1296,45412,53.1448,0.0001863,15.26993315,483.5278380733007,486.0849707857915,1 45412U 20019BE  26029.58335647  .00767891  00000+0  26533-1 0  9995,2 45412  53.1448 310.8410 0001863  85.2040   9.8050 15.26993315  5839
STARLINK-1298,45413,53.0421,0.0007663,15.77184759,333.2744749273352,343.5682722907277,1 45413U 20019BF  26029.58335647  .00205338  00000+0  12021-2 0  9997,2 45413  53.0421 251.9693 0007663 156.7337  33.8909 15.77184759  5903
STARLINK-1309,45414,53.0703,0.0001295,15.3093921,472.12158636440563,473.89603312912914,1 45414U 20019BG  26029.58335647  .01681754  00000+0  50172-1 0  9997,2 45414  53.0703 310.9457 0001295  71.8465 212.0815 15.30939210  5844
STARLINK-1316,45415,53.1548,0.000145,15.29329603,476.8210374140226,478.8092635376606,1 45415U 20019BH  26029.58335647  .00066657  00000+0  23035-2 0  9995,2 45415  53.1548 310.9296 0001450 103.0971  82.3353 15.29329603  5782
STARLINK-1318,45416,53.0388,0.0004914,15.84952693,313.1682210451472,319.747668957094,1 45416U 20019BJ  26029.58335647  .00360776  00000+0  14496-2 0  9996,2 45416  53.0388 238.9015 0004914 198.9398 176.5343 15.84952693  5985
STARLINK-1286,45417,53.0521,0.0002228,15.47851312,421.49762361283865,424.5282160171082,1 45417U 20019BK  26028.80536441  .00045168  00000+0  85792-3 0  9999,2 45417  53.0521 321.9151 0002228  52.2926 307.8283 15.47851312324042
STARLINK-1308,45419,53.0564,0.0001954,15.42056771,438.7076484264171,441.3721919668287,1 45419U 20019BM  26029.58335647  .00103623  00000+0  23665-2 0  9993,2 45419  53.0564 338.5422 0001954  97.1940   2.2354 15.42056771  5799
STARLINK-1329,45531,53.053,0.0008041,15.47840308,417.57632330461456,428.5139844444757,1 45531U 20025A   26029.58335647  .00130874  00000+0  24416-2 0  9998,2 45531  53.0530 269.5868 0008041 115.2646  39.7476 15.47840308  5942
STARLINK-1338,45532,53.0511,0.0004862,15.46489557,423.6961571696047,430.31347707257464,1 45532U 20025B   26028.93817828  .00098857  00000+0  19439-2 0  9996,2 45532  53.0511 275.6847 0004862 128.0706 232.0739 15.46489557319237
STARLINK-1350,45535,53.071,0.0001722,15.35009946,459.7132718701032,462.06863309693836,1 45535U 20025E   26028.89277815  .00016285  00000+0  48265-3 0  9995,2 45535  53.0710 219.8886 0001722 118.7243 241.3932 15.35009946320045
STARLINK-1362,45538,53.0706,0.000147,15.1035328,534.1055108390256,536.1380089144286,1 45538U 20025H   26029.58335647  .01521317  00000+0  84570-1 0  9998,2 45538  53.0706 281.8642 0001470  82.0125 264.5873 15.10353280  5838
STARLINK-1368,45540,53.083,0.0001018,15.13527737,524.7490619683886,526.1546326577018,1 45540U 20025K   26029.58335647  .00137928  00000+0  74810-2 0  9998,2 45540  53.0830 282.0265 0001018  90.9738 294.7549 15.13527737  5680
STARLINK-1371,45542,53.0531,0.0004244,15.41415315,439.0369298139676,444.8258038437316,1 45542U 20025M   26028.94225131  .00097133  00000+0  22683-2 0  9999,2 45542  53.0531 278.4584 0004244 123.2914 236.8497 15.41415315319195
STARLINK-1372,45543,53.0804,0.0001525,15.12660582,527.0367851318524,529.1431843622004,1 45543U 20025N   26029.58335647  .01006797  00000+0  52880-1 0  9993,2 45543  53.0804 282.1007 0001525  95.9415 208.6900 15.12660582  5836
STARLINK-1373,45544,53.0549,0.0004299,15.42863131,434.7339715260059,440.59419729838464,1 45544U 20025P   26029.41675149  .00101012  00000+0  22461-2 0  9998,2 45544  53.0549 276.5521 0004299 137.7213 222.4123 15.42863131319267
STARLINK-1294,45551,53.0347,0.0005427,15.83087649,318.0788621916181,325.3508814132729,1 45551U 20025W   26029.58335647  .00280912  00000+0  12450-2 0  9994,2 45551  53.0347 174.6938 0005427 302.1165 272.8032 15.83087649  6043
STARLINK-1325,45554,53.0494,0.0004989,16.31675457,184.7651677335598,191.3169001758397,1 45554U 20025Z   26029.74409125  .09560598  12152-4  17324-2 0  9999,2 45554  53.0494 159.1744 0004989 283.7017  76.3470 16.31675457320949
STARLINK-1327,45555,53.0519,0.0003652,15.45802456,426.53525988808997,431.50720826225916,1 45555U 20025AA  26029.58335647  .00172798  00000+0  34400-2 0  9999,2 45555  53.0519 254.2901 0003652 144.4211 239.0406 15.45802456  5790
STARLINK-1356,45564,53.0536,0.0001273,15.38885102,448.5358132892816,450.27410547214004,1 45564U 20025AK  26029.00002315  .00091238  00000+0  23187-2 0  9998,2 45564  53.0536 262.0786 0001273  83.6584 239.9699 15.38885102  5706
STARLINK-1357,45565,53.0573,0.000529,15.47116975,421.5659073878851,428.76380074948975,1 45565U 20025AL  26029.58335647  .00150052  00000+0  28640-2 0  9998,2 45565  53.0573 226.0408 0005290 139.8796  62.6090 15.47116975  5948
STARLINK-1361,45567,53.0537,0.0001456,15.39335919,447.077968060089,449.0657600813056,1 45567U 20025AN  26029.58335647  .00121067  00000+0  30165-2 0  9999,2 45567  53.0537 259.8173 0001456  98.2111 229.0676 15.39335919  5684
STARLINK-1363,45568,53.0468,5.69e-05,15.65286595,372.0305357676534,372.798748544531,1 45568U 20025AP  26029.58335647  .00192580  00000+0  18639-2 0  9990,2 45568  53.0468 231.5471 0000569  19.7389 311.0396 15.65286595  5972
STARLINK-1366,45569,53.0473,2.44e-05,15.65025148,373.0017033149297,373.33116692256317,1 45569U 20025AQ  26029.58335647  .00190920  00000+0  18676-2 0  9998,2 45569  53.0473 232.1822 0000244 108.1718 204.5594 15.65025148  5965
STARLINK-1376,45570,53.1595,0.0001183,15.29371405,476.87917730863046,478.50126602927776,1 45570U 20025AR  26028.92077306  .00007395  00000+0  26822-3 0  9998,2 45570  53.1595 262.2865 0001183  86.6231 273.4905 15.29371405319416
STARLINK-1320,45572,53.0506,0.0005623,15.59989948,383.881722565593,391.4905672743689,1 45572U 20025AT  26029.58335647  .00121436  00000+0  14591-2 0  9990,2 45572  53.0506 177.5323 0005623 231.3159 108.6912 15.59989948  5988
STARLINK-1321,45573,53.0527,0.0003966,15.41662751,438.4970528721824,443.90615225173497,1 45573U 20025AU  26028.32320771  .00051759  00000+0  12104-2 0  9992,2 45573  53.0527 250.6675 0003966 125.3495 234.7881 15.41662751319220
STARLINK-1331,45578,53.0543,0.0001169,15.29652233,476.04974288756785,477.6524391032426,1 45578U 20025AZ  26029.58335647  .01811296  00000+0  56705-1 0  9999,2 45578  53.0543 251.0050 0001169  77.2742 216.1143 15.29652233  5832
STARLINK-1333,45580,53.1611,0.0001362,15.30153298,474.42107117529304,476.28796226444865,1 45580U 20025BB  26029.58335647  .00066033  00000+0  22251-2 0  9992,2 45580  53.1611 259.4501 0001362  85.5392 349.2537 15.30153298  5837
STARLINK-1335,45581,53.0552,0.0002106,15.06392595,545.775770103789,548.6927364756748,1 45581U 20025BC  26028.85534110  .00000093  00000+0  25130-4 0  9993,2 45581  53.0552 255.4427 0002106  92.5827 267.5403 15.06392595319506
STARLINK-1337,45582,53.0533,0.000129,15.36006936,457.04939936797473,458.81310497703544,1 45582U 20025BD  26029.58335647  .01572204  00000+0  40277-1 0  9994,2 45582  53.0533 250.2668 0001290 125.8602   5.9919 15.36006936  5681
STARLINK-1347,45586,53.049,0.0004845,15.45727481,425.9431767895412,432.5395264122426,1 45586U 20025BH  26029.58335647  .00175187  00000+0  34948-2 0  9995,2 45586  53.0490 217.1861 0004845 153.8201  51.3761 15.45727481  5943
STARLINK-1364,45589,53.0537,8.61e-05,15.42009033,439.5935818303333,440.7676961277657,1 45589U 20025BL  26029.58335647  .00230964  00000+0  51842-2 0  9995,2 45589  53.0537 249.7096 0000861 121.2498 275.6663 15.42009033  5833
STARLINK-1365,45590,53.0544,0.0001102,15.41476977,440.99793701994804,442.50104000201554,1 45590U 20025BM  26029.58335647  .00115895  00000+0  26930-2 0  9992,2 45590  53.0544 279.2726 0001102 135.8691  36.5708 15.41476977  5788
STARLINK-1443,45660,53.0548,0.0001756,15.0640255,545.987652732174,548.419832400964,1 45660U 20035D   26029.28014352  .00002200  00000+0  16657-3 0  9996,2 45660  53.0548 243.5330 0001756  89.5138 270.6052 15.06402550312793
STARLINK-1446,45663,53.0238,0.0004429,15.41053705,439.97713550719345,446.01929708178704,1 45663U 20035G   26028.82048138  .00027687  00000+0  66721-3 0  9990,2 45663  53.0238 188.4994 0004429 137.7227 222.4119 15.41053705313524
STARLINK-1448,45665,53.0536,0.0001435,15.40914164,442.4311203978723,444.38890439043007,1 45665U 20035J   26029.58335647  .01647158  00000+0  35833-1 0  9990,2 45665  53.0536 239.8453 0001435  70.3377 231.3802 15.40914164  5788
